[
  {
    "OBJECT_NAME": "STARLINK-6219",
    "OBJECT_ID": "23083S",
    "EPOCH": "2025-11-11T05:31:51.909888",
    "MEAN_MOTION": 15.02540354,
    "ECCENTRICITY": 0.0001236,
    "INCLINATION": 43.0048,
    "RA_OF_ASC_NODE": 5.2262,
    "ARG_OF_PERICENTER": 252.0667,
    "MEAN_ANOMALY": 108.0041,
    "EPHEMERIS_TYPE": 0,
    "CLASSIFICATION_TYPE": "U",
    "NORAD_CAT_ID": 56892,
    "ELEMENT_SET_NO": 999,
    "REV_AT_EPOCH": 13385,
    "BSTAR": 0.00013247,
    "MEAN_MOTION_DOT": 1.586e-05,
    "MEAN_MOTION_DDOT": 0.0,
    "TLE_LINE1": "1 56892U 23083S   25315.23046192  .00001586  00000+0  13247-3 0  9998",
    "TLE_LINE2": "2 56892  43.0048   5.2262 0001236 252.0667 108.0041 15.02540354133851",
    "COMMENT": "Grouped by shell and plane from TLE"
  },
  {
    "OBJECT_NAME": "STARLINK-6216",
    "OBJECT_ID": "23083T",
    "EPOCH": "2025-11-11T04:10:31.192896",
    "MEAN_MOTION": 15.02541522,
    "ECCENTRICITY": 9.31e-05,
    "INCLINATION": 43.0052,
    "RA_OF_ASC_NODE": 5.6665,
    "ARG_OF_PERICENTER": 270.3571,
    "MEAN_ANOMALY": 89.7165,
    "EPHEMERIS_TYPE": 0,
    "CLASSIFICATION_TYPE": "U",
    "NORAD_CAT_ID": 56893,
    "ELEMENT_SET_NO": 999,
    "REV_AT_EPOCH": 13396,
    "BSTAR": 0.00018523999999999998,
    "MEAN_MOTION_DOT": 2.3e-05,
    "MEAN_MOTION_DDOT": 0.0,
    "TLE_LINE1": "1 56893U 23083T   25315.17397214  .00002300  00000+0  18524-3 0  9994",
    "TLE_LINE2": "2 56893  43.0052   5.6665 0000931 270.3571  89.7165 15.02541522133968",
    "COMMENT": "Grouped by shell and plane from TLE"
  },
  {
    "OBJECT_NAME": "STARLINK-6144",
    "OBJECT_ID": "23083U",
    "EPOCH": "2025-11-11T03:57:44.148384",
    "MEAN_MOTION": 15.02541322,
    "ECCENTRICITY": 0.0001049,
    "INCLINATION": 43.0057,
    "RA_OF_ASC_NODE": 5.5982,
    "ARG_OF_PERICENTER": 259.8894,
    "MEAN_ANOMALY": 100.1831,
    "EPHEMERIS_TYPE": 0,
    "CLASSIFICATION_TYPE": "U",
    "NORAD_CAT_ID": 56894,
    "ELEMENT_SET_NO": 999,
    "REV_AT_EPOCH": 13396,
    "BSTAR": 9.4141e-05,
    "MEAN_MOTION_DOT": 1.068e-05,
    "MEAN_MOTION_DDOT": 0.0,
    "TLE_LINE1": "1 56894U 23083U   25315.16509431  .00001068  00000+0  94141-4 0  9990",
    "TLE_LINE2": "2 56894  43.0057   5.5982 0001049 259.8894 100.1831 15.02541322133962",
    "COMMENT": "Grouped by shell and plane from TLE"
  },
  {
    "OBJECT_NAME": "STARLINK-6208",
    "OBJECT_ID": "23083V",
    "EPOCH": "2025-11-11T05:28:39.893664",
    "MEAN_MOTION": 15.02542717,
    "ECCENTRICITY": 0.0001396,
    "INCLINATION": 43.005,
    "RA_OF_ASC_NODE": 5.2123,
    "ARG_OF_PERICENTER": 261.2452,
    "MEAN_ANOMALY": 98.8232,
    "EPHEMERIS_TYPE": 0,
    "CLASSIFICATION_TYPE": "U",
    "NORAD_CAT_ID": 56895,
    "ELEMENT_SET_NO": 999,
    "REV_AT_EPOCH": 13385,
    "BSTAR": 0.00016238,
    "MEAN_MOTION_DOT": 1.991e-05,
    "MEAN_MOTION_DDOT": 0.0,
    "TLE_LINE1": "1 56895U 23083V   25315.22823951  .00001991  00000+0  16238-3 0  9999",
    "TLE_LINE2": "2 56895  43.0050   5.2123 0001396 261.2452  98.8232 15.02542717133857",
    "COMMENT": "Grouped by shell and plane from TLE"
  },
  {
    "OBJECT_NAME": "STARLINK-6202",
    "OBJECT_ID": "23083W",
    "EPOCH": "2025-11-11T03:46:34.459392",
    "MEAN_MOTION": 15.02549896,
    "ECCENTRICITY": 3.12e-05,
    "INCLINATION": 43.0002,
    "RA_OF_ASC_NODE": 5.5323,
    "ARG_OF_PERICENTER": 213.5128,
    "MEAN_ANOMALY": 146.5695,
    "EPHEMERIS_TYPE": 0,
    "CLASSIFICATION_TYPE": "U",
    "NORAD_CAT_ID": 56896,
    "ELEMENT_SET_NO": 999,
    "REV_AT_EPOCH": 13395,
    "BSTAR": 0.0,
    "MEAN_MOTION_DOT": -3.217e-05,
    "MEAN_MOTION_DDOT": 0.0,
    "TLE_LINE1": "1 56896U 23083W   25315.15734328 -.00003217  00000+0 -22314-3 0  9998",
    "TLE_LINE2": "2 56896  43.0002   5.5323 0000312 213.5128 146.5695 15.02549896133957",
    "COMMENT": "Grouped by shell and plane from TLE"
  },
  {
    "OBJECT_NAME": "STARLINK-6200",
    "OBJECT_ID": "23083X",
    "EPOCH": "2025-11-11T03:51:20.791584",
    "MEAN_MOTION": 15.02533013,
    "ECCENTRICITY": 0.0001406,
    "INCLINATION": 43.004,
    "RA_OF_ASC_NODE": 5.5603,
    "ARG_OF_PERICENTER": 271.1755,
    "MEAN_ANOMALY": 88.8927,
    "EPHEMERIS_TYPE": 0,
    "CLASSIFICATION_TYPE": "U",
    "NORAD_CAT_ID": 56897,
    "ELEMENT_SET_NO": 999,
    "REV_AT_EPOCH": 13396,
    "BSTAR": 4.0728e-05,
    "MEAN_MOTION_DOT": 3.46e-06,
    "MEAN_MOTION_DDOT": 0.0,
    "TLE_LINE1": "1 56897U 23083X   25315.16065731  .00000346  00000+0  40728-4 0  9993",
    "TLE_LINE2": "2 56897  43.0040   5.5603 0001406 271.1755  88.8927 15.02533013133963",
    "COMMENT": "Grouped by shell and plane from TLE"
  },
  {
    "OBJECT_NAME": "STARLINK-6205",
    "OBJECT_ID": "23083Y",
    "EPOCH": "2025-11-11T03:36:57.824928",
    "MEAN_MOTION": 15.02598326,
    "ECCENTRICITY": 0.0001463,
    "INCLINATION": 43.0034,
    "RA_OF_ASC_NODE": 5.4858,
    "ARG_OF_PERICENTER": 243.4253,
    "MEAN_ANOMALY": 116.6439,
    "EPHEMERIS_TYPE": 0,
    "CLASSIFICATION_TYPE": "U",
    "NORAD_CAT_ID": 56898,
    "ELEMENT_SET_NO": 999,
    "REV_AT_EPOCH": 13395,
    "BSTAR": 0.0,
    "MEAN_MOTION_DOT": -8.941e-05,
    "MEAN_MOTION_DDOT": 0.0,
    "TLE_LINE1": "1 56898U 23083Y   25315.15066927 -.00008941  00000+0 -64654-3 0  9995",
    "TLE_LINE2": "2 56898  43.0034   5.4858 0001463 243.4253 116.6439 15.02598326133951",
    "COMMENT": "Grouped by shell and plane from TLE"
  },
  {
    "OBJECT_NAME": "STARLINK-6203",
    "OBJECT_ID": "23083Z",
    "EPOCH": "2025-11-11T03:41:47.150880",
    "MEAN_MOTION": 15.02516655,
    "ECCENTRICITY": 0.000196,
    "INCLINATION": 43.0072,
    "RA_OF_ASC_NODE": 5.5096,
    "ARG_OF_PERICENTER": 259.8958,
    "MEAN_ANOMALY": 100.1664,
    "EPHEMERIS_TYPE": 0,
    "CLASSIFICATION_TYPE": "U",
    "NORAD_CAT_ID": 56899,
    "ELEMENT_SET_NO": 999,
    "REV_AT_EPOCH": 13395,
    "BSTAR": 0.0,
    "MEAN_MOTION_DOT": -1.081e-05,
    "MEAN_MOTION_DDOT": 0.0,
    "TLE_LINE1": "1 56899U 23083Z   25315.15401795 -.00001081  00000+0 -65014-4 0  9992",
    "TLE_LINE2": "2 56899  43.0072   5.5096 0001960 259.8958 100.1664 15.02516655133957",
    "COMMENT": "Grouped by shell and plane from TLE"
  },
  {
    "OBJECT_NAME": "STARLINK-6185",
    "OBJECT_ID": "23083AB",
    "EPOCH": "2025-11-11T03:33:45.771552",
    "MEAN_MOTION": 15.02532804,
    "ECCENTRICITY": 7.19e-05,
    "INCLINATION": 43.0012,
    "RA_OF_ASC_NODE": 5.4703,
    "ARG_OF_PERICENTER": 255.9337,
    "MEAN_ANOMALY": 104.1426,
    "EPHEMERIS_TYPE": 0,
    "CLASSIFICATION_TYPE": "U",
    "NORAD_CAT_ID": 56901,
    "ELEMENT_SET_NO": 999,
    "REV_AT_EPOCH": 13395,
    "BSTAR": 0.00018119,
    "MEAN_MOTION_DOT": 2.245e-05,
    "MEAN_MOTION_DDOT": 0.0,
    "TLE_LINE1": "1 56901U 23083AB  25315.14844643  .00002245  00000+0  18119-3 0  9992",
    "TLE_LINE2": "2 56901  43.0012   5.4703 0000719 255.9337 104.1426 15.02532804133952",
    "COMMENT": "Grouped by shell and plane from TLE"
  },
  {
    "OBJECT_NAME": "STARLINK-6192",
    "OBJECT_ID": "23083AD",
    "EPOCH": "2025-11-11T05:14:16.897632",
    "MEAN_MOTION": 15.02545745,
    "ECCENTRICITY": 0.000106,
    "INCLINATION": 43.0051,
    "RA_OF_ASC_NODE": 5.1316,
    "ARG_OF_PERICENTER": 234.7581,
    "MEAN_ANOMALY": 125.3162,
    "EPHEMERIS_TYPE": 0,
    "CLASSIFICATION_TYPE": "U",
    "NORAD_CAT_ID": 56903,
    "ELEMENT_SET_NO": 999,
    "REV_AT_EPOCH": 13396,
    "BSTAR": 0.00019747999999999999,
    "MEAN_MOTION_DOT": 2.466e-05,
    "MEAN_MOTION_DDOT": 0.0,
    "TLE_LINE1": "1 56903U 23083AD  25315.21825113  .00002466  00000+0  19748-3 0  9997",
    "TLE_LINE2": "2 56903  43.0051   5.1316 0001060 234.7581 125.3162 15.02545745133961",
    "COMMENT": "Grouped by shell and plane from TLE"
  },
  {
    "OBJECT_NAME": "STARLINK-30166",
    "OBJECT_ID": "23119A",
    "EPOCH": "2025-11-11T04:08:58.792416",
    "MEAN_MOTION": 15.02548917,
    "ECCENTRICITY": 0.0001317,
    "INCLINATION": 43.0057,
    "RA_OF_ASC_NODE": 5.9659,
    "ARG_OF_PERICENTER": 275.9371,
    "MEAN_ANOMALY": 84.1321,
    "EPHEMERIS_TYPE": 0,
    "CLASSIFICATION_TYPE": "U",
    "NORAD_CAT_ID": 57602,
    "ELEMENT_SET_NO": 999,
    "REV_AT_EPOCH": 12519,
    "BSTAR": 0.0,
    "MEAN_MOTION_DOT": -9.07e-06,
    "MEAN_MOTION_DDOT": 0.0,
    "TLE_LINE1": "1 57602U 23119A   25315.17290269 -.00000907  00000+0 -52067-4 0  9999",
    "TLE_LINE2": "2 57602  43.0057   5.9659 0001317 275.9371  84.1321 15.02548917125190",
    "COMMENT": "Grouped by shell and plane from TLE"
  },
  {
    "OBJECT_NAME": "STARLINK-30223",
    "OBJECT_ID": "23119B",
    "EPOCH": "2025-11-11T05:15:56.433024",
    "MEAN_MOTION": 15.02534791,
    "ECCENTRICITY": 0.0001474,
    "INCLINATION": 43.0047,
    "RA_OF_ASC_NODE": 5.4436,
    "ARG_OF_PERICENTER": 282.7939,
    "MEAN_ANOMALY": 77.2738,
    "EPHEMERIS_TYPE": 0,
    "CLASSIFICATION_TYPE": "U",
    "NORAD_CAT_ID": 57603,
    "ELEMENT_SET_NO": 999,
    "REV_AT_EPOCH": 12525,
    "BSTAR": 0.00010388,
    "MEAN_MOTION_DOT": 1.2e-05,
    "MEAN_MOTION_DDOT": 0.0,
    "TLE_LINE1": "1 57603U 23119B   25315.21940316  .00001200  00000+0  10388-3 0  9994",
    "TLE_LINE2": "2 57603  43.0047   5.4436 0001474 282.7939  77.2738 15.02534791125255",
    "COMMENT": "Grouped by shell and plane from TLE"
  },
  {
    "OBJECT_NAME": "STARLINK-30218",
    "OBJECT_ID": "23119C",
    "EPOCH": "2025-11-11T03:49:47.987616",
    "MEAN_MOTION": 15.02543191,
    "ECCENTRICITY": 0.0001536,
    "INCLINATION": 43.0053,
    "RA_OF_ASC_NODE": 5.8624,
    "ARG_OF_PERICENTER": 268.3702,
    "MEAN_ANOMALY": 91.6964,
    "EPHEMERIS_TYPE": 0,
    "CLASSIFICATION_TYPE": "U",
    "NORAD_CAT_ID": 57604,
    "ELEMENT_SET_NO": 999,
    "REV_AT_EPOCH": 12525,
    "BSTAR": 0.00018007,
    "MEAN_MOTION_DOT": 2.23e-05,
    "MEAN_MOTION_DDOT": 0.0,
    "TLE_LINE1": "1 57604U 23119C   25315.15958319  .00002230  00000+0  18007-3 0  9990",
    "TLE_LINE2": "2 57604  43.0053   5.8624 0001536 268.3702  91.6964 15.02543191125258",
    "COMMENT": "Grouped by shell and plane from TLE"
  }
]